[{"OBJECT_NAME":"STARLINK-6087","OBJECT_ID":"2023-078AL","EPOCH":"2026-03-09T22:30:04.617216","MEAN_MOTION":14.9831354,"ECCENTRICITY":0.0002879,"INCLINATION":70.0002,"RA_OF_ASC_NODE":323.7109,"ARG_OF_PERICENTER":265.7258,"MEAN_ANOMALY":94.3572,"EPHEMERIS_TYPE":0,"CLASSIFICATION_TYPE":"U","NORAD_CAT_ID":56801,"ELEMENT_SET_NO":999,"REV_AT_EPOCH":15321,"BSTAR":-0.00023492669,"MEAN_MOTION_DOT":-2.894e-5,"MEAN_MOTION_DDOT":0},{"OBJECT_NAME":"TITAN 3C TRANSTAGE DEB","OBJECT_ID":"1965-082MY","EPOCH":"2026-03-09T02:07:30.980928","MEAN_MOTION":14.9794194,"ECCENTRICITY":0.0005374,"INCLINATION":32.3706,"RA_OF_ASC_NODE":83.5066,"ARG_OF_PERICENTER":10.5158,"MEAN_ANOMALY":349.5614,"EPHEMERIS_TYPE":0,"CLASSIFICATION_TYPE":"U","NORAD_CAT_ID":3386,"ELEMENT_SET_NO":999,"REV_AT_EPOCH":23080,"BSTAR":0.0004514074,"MEAN_MOTION_DOT":5.483e-5,"MEAN_MOTION_DDOT":0}]
